start=new Date('2022-11-25T00:00:00.000Z').valueOf();
sats=[{"REF_FRAME":"TEME","MEAN_MOTION_DDOT":"0.0000000000000","ECCENTRICITY":"0.00015310","OBJECT_NAME":"STARLINK-2501","EPHEMERIS_TYPE":"0","COUNTRY_CODE":"US","NORAD_CAT_ID":"48330","DECAY_DATE":null,"GP_ID":"218723644","EPOCH":"2022-11-24T14:28:52.059648","CENTER_NAME":"EARTH","BSTAR":"0.00007039700000","RCS_SIZE":"LARGE","RA_OF_ASC_NODE":"93.5128","TIME_SYSTEM":"UTC","MEAN_ELEMENT_THEORY":"SGP4","ARG_OF_PERICENTER":"80.1614","MEAN_ANOMALY":"279.9548","ELEMENT_SET_NO":"999","TLE_LINE1":"1 48330U 21036BG  22328.60338032  .00000767  00000-0  70397-4 0  9992","PERIAPSIS":"546.135","SITE":"AFETR","APOAPSIS":"548.255","INCLINATION":"53.0567","TLE_LINE2":"2 48330  53.0567  93.5128 0001531  80.1614 279.9548 15.06405993 87005","FILE":"3669335","PERIOD":"95.592","MEAN_MOTION":"15.06405993","OBJECT_ID":"2021-036BG","LAUNCH_DATE":"2021-04-29","OBJECT_TYPE":"PAYLOAD","CLASSIFICATION_TYPE":"U","REV_AT_EPOCH":"8700","SEMIMAJOR_AXIS":"6925.330","MEAN_MOTION_DOT":"0.00000767"},{"LAUNCH_DATE":"2021-04-29","OBJECT_ID":"2021-036BH","PERIOD":"95.592","MEAN_MOTION":"15.06399367","OBJECT_TYPE":"PAYLOAD","FILE":"3669335","MEAN_MOTION_DOT":"0.00000856","SEMIMAJOR_AXIS":"6925.350","REV_AT_EPOCH":"8700","CLASSIFICATION_TYPE":"U","TLE_LINE1":"1 48331U 21036BH  22328.59969684  .00000856  00000-0  76351-4 0  9999","ELEMENT_SET_NO":"999","MEAN_ELEMENT_THEORY":"SGP4","TIME_SYSTEM":"UTC","MEAN_ANOMALY":"306.5020","ARG_OF_PERICENTER":"53.6123","INCLINATION":"53.0561","APOAPSIS":"548.371","SITE":"AFETR","TLE_LINE2":"2 48331  53.0561  93.5279 0001669  53.6123 306.5020 15.06399367 87008","PERIAPSIS":"546.060","DECAY_DATE":null,"GP_ID":"218721899","BSTAR":"0.00007635100000","RCS_SIZE":"LARGE","CENTER_NAME":"EARTH","RA_OF_ASC_NODE":"93.5279","EPOCH":"2022-11-24T14:23:33.806976","OBJECT_NAME":"STARLINK-2514","EPHEMERIS_TYPE":"0","COUNTRY_CODE":"US","REF_FRAME":"TEME","MEAN_MOTION_DDOT":"0.0000000000000","ECCENTRICITY":"0.00016690","NORAD_CAT_ID":"48331"},{"OBJECT_TYPE":"PAYLOAD","MEAN_MOTION":"15.06398496","PERIOD":"95.592","OBJECT_ID":"2021-036BJ","LAUNCH_DATE":"2021-04-29","FILE":"3669335","MEAN_MOTION_DOT":"0.00001122","REV_AT_EPOCH":"8700","CLASSIFICATION_TYPE":"U","SEMIMAJOR_AXIS":"6925.353","ELEMENT_SET_NO":"999","TLE_LINE1":"1 48332U 21036BJ  22328.59875368  .00001122  00000-0  94214-4 0  9990","ARG_OF_PERICENTER":"80.6903","MEAN_ANOMALY":"279.4232","TIME_SYSTEM":"UTC","MEAN_ELEMENT_THEORY":"SGP4","TLE_LINE2":"2 48332  53.0551  93.5125 0001290  80.6903 279.4232 15.06398496 87009","APOAPSIS":"548.112","SITE":"AFETR","INCLINATION":"53.0551","PERIAPSIS":"546.325","GP_ID":"218722149","DECAY_DATE":null,"RA_OF_ASC_NODE":"93.5125","CENTER_NAME":"EARTH","RCS_SIZE":"LARGE","BSTAR":"0.00009421400000","EPOCH":"2022-11-24T14:22:12.317952","EPHEMERIS_TYPE":"0","COUNTRY_CODE":"US","OBJECT_NAME":"STARLINK-2511","ECCENTRICITY":"0.00012900","REF_FRAME":"TEME","MEAN_MOTION_DDOT":"0.0000000000000","NORAD_CAT_ID":"48332"},{"EPHEMERIS_TYPE":"0","COUNTRY_CODE":"US","OBJECT_NAME":"STARLINK-2518","ECCENTRICITY":"0.00015790","MEAN_MOTION_DDOT":"0.0000000000000","REF_FRAME":"TEME","NORAD_CAT_ID":"48333","GP_ID":"218723400","DECAY_DATE":null,"RA_OF_ASC_NODE":"92.6673","RCS_SIZE":"LARGE","BSTAR":"0.00007847300000","CENTER_NAME":"EARTH","EPOCH":"2022-11-24T18:59:34.582272","TLE_LINE1":"1 48333U 21036BK  22328.79137248  .00000887  00000-0  78473-4 0  9997","ELEMENT_SET_NO":"999","MEAN_ANOMALY":"291.4439","ARG_OF_PERICENTER":"68.6718","MEAN_ELEMENT_THEORY":"SGP4","TIME_SYSTEM":"UTC","TLE_LINE2":"2 48333  53.0578  92.6673 0001579  68.6718 291.4439 15.06388170 87031","INCLINATION":"53.0578","SITE":"AFETR","APOAPSIS":"548.343","PERIAPSIS":"546.156","OBJECT_TYPE":"PAYLOAD","OBJECT_ID":"2021-036BK","LAUNCH_DATE":"2021-04-29","PERIOD":"95.593","MEAN_MOTION":"15.06388170","FILE":"3669335","MEAN_MOTION_DOT":"0.00000887","SEMIMAJOR_AXIS":"6925.385","CLASSIFICATION_TYPE":"U","REV_AT_EPOCH":"8703"},{"BSTAR":"0.00000155970000","RCS_SIZE":"LARGE","CENTER_NAME":"EARTH","RA_OF_ASC_NODE":"93.5607","EPOCH":"2022-11-24T14:07:38.698176","DECAY_DATE":null,"GP_ID":"218723145","NORAD_CAT_ID":"48334","OBJECT_NAME":"STARLINK-2470","EPHEMERIS_TYPE":"0","COUNTRY_CODE":"US","MEAN_MOTION_DDOT":"0.0000000000000","REF_FRAME":"TEME","ECCENTRICITY":"0.00011170","MEAN_MOTION_DOT":"-0.00000258","SEMIMAJOR_AXIS":"6925.351","CLASSIFICATION_TYPE":"U","REV_AT_EPOCH":"8700","OBJECT_ID":"2021-036BL","LAUNCH_DATE":"2021-04-29","PERIOD":"95.592","MEAN_MOTION":"15.06399126","OBJECT_TYPE":"PAYLOAD","FILE":"3669335","INCLINATION":"53.0546","APOAPSIS":"547.990","SITE":"AFETR","TLE_LINE2":"2 48334  53.0546  93.5607 0001117  80.8725 279.2390 15.06399126 87006","PERIAPSIS":"546.443","TLE_LINE1":"1 48334U 21036BL  22328.58864234 -.00000258  00000-0  15597-5 0  9999","ELEMENT_SET_NO":"999","MEAN_ELEMENT_THEORY":"SGP4","TIME_SYSTEM":"UTC","MEAN_ANOMALY":"279.2390","ARG_OF_PERICENTER":"80.8725"},{"RA_OF_ASC_NODE":"93.2958","CENTER_NAME":"EARTH","RCS_SIZE":"LARGE","BSTAR":"0.00004514900000","EPOCH":"2022-11-24T15:37:52.521312","GP_ID":"218722399","DECAY_DATE":null,"NORAD_CAT_ID":"48335","COUNTRY_CODE":"US","EPHEMERIS_TYPE":"0","OBJECT_NAME":"STARLINK-2441","ECCENTRICITY":"0.00012980","MEAN_MOTION_DDOT":"0.0000000000000","REF_FRAME":"TEME","MEAN_MOTION_DOT":"0.00000391","REV_AT_EPOCH":"8701","CLASSIFICATION_TYPE":"U","SEMIMAJOR_AXIS":"6925.338","OBJECT_TYPE":"PAYLOAD","MEAN_MOTION":"15.06403592","PERIOD":"95.592","LAUNCH_DATE":"2021-04-29","OBJECT_ID":"2021-036BM","FILE":"3669335","TLE_LINE2":"2 48335  53.0556  93.2958 0001298  81.3863 278.7273 15.06403592 87011","SITE":"AFETR","APOAPSIS":"548.101","INCLINATION":"53.0556","PERIAPSIS":"546.304","ELEMENT_SET_NO":"999","TLE_LINE1":"1 48335U 21036BM  22328.65130233  .00000391  00000-0  45149-4 0  9995","ARG_OF_PERICENTER":"81.3863","MEAN_ANOMALY":"278.7273","TIME_SYSTEM":"UTC","MEAN_ELEMENT_THEORY":"SGP4"},{"PERIAPSIS":"546.103","TLE_LINE2":"2 48353  53.0569 352.6746 0001553  50.4035 309.7091 15.06411279 86028","SITE":"AFETR","APOAPSIS":"548.254","INCLINATION":"53.0569","ARG_OF_PERICENTER":"50.4035","MEAN_ANOMALY":"309.7091","TIME_SYSTEM":"UTC","MEAN_ELEMENT_THEORY":"SGP4","ELEMENT_SET_NO":"999","TLE_LINE1":"1 48353U 21038A   22328.78951526  .00000845  00000-0  75595-4 0  9999","CLASSIFICATION_TYPE":"U","REV_AT_EPOCH":"8602","SEMIMAJOR_AXIS":"6925.314","MEAN_MOTION_DOT":"0.00000845","FILE":"3669335","OBJECT_TYPE":"PAYLOAD","MEAN_MOTION":"15.06411279","PERIOD":"95.591","LAUNCH_DATE":"2021-05-04","OBJECT_ID":"2021-038A","NORAD_CAT_ID":"48353","ECCENTRICITY":"0.00015530","REF_FRAME":"TEME","MEAN_MOTION_DDOT":"0.0000000000000","COUNTRY_CODE":"US","EPHEMERIS_TYPE":"0","OBJECT_NAME":"STARLINK-2613","EPOCH":"2022-11-24T18:56:54.118464","RA_OF_ASC_NODE":"352.6746","CENTER_NAME":"EARTH","RCS_SIZE":"LARGE","BSTAR":"0.00007559500000","GP_ID":"218722151","DECAY_DATE":null},{"RA_OF_ASC_NODE":"353.5850","CENTER_NAME":"EARTH","RCS_SIZE":"LARGE","BSTAR":"0.00000211330000","EPOCH":"2022-11-24T14:04:59.742912","GP_ID":"218723402","DECAY_DATE":null,"NORAD_CAT_ID":"48354","EPHEMERIS_TYPE":"0","COUNTRY_CODE":"US","OBJECT_NAME":"STARLINK-2674","ECCENTRICITY":"0.00015600","MEAN_MOTION_DDOT":"0.0000000000000","REF_FRAME":"TEME","MEAN_MOTION_DOT":"-0.00000250","REV_AT_EPOCH":"8599","CLASSIFICATION_TYPE":"U","SEMIMAJOR_AXIS":"6925.377","OBJECT_TYPE":"PAYLOAD","PERIOD":"95.593","MEAN_MOTION":"15.06390695","LAUNCH_DATE":"2021-05-04","OBJECT_ID":"2021-038B","FILE":"3669335","TLE_LINE2":"2 48354  53.0548 353.5850 0001560  64.4936 295.6214 15.06390695 85998","APOAPSIS":"548.322","SITE":"AFETR","INCLINATION":"53.0548","PERIAPSIS":"546.162","ELEMENT_SET_NO":"999","TLE_LINE1":"1 48354U 21038B   22328.58680258 -.00000250  00000-0  21133-5 0  9990","ARG_OF_PERICENTER":"64.4936","MEAN_ANOMALY":"295.6214","TIME_SYSTEM":"UTC","MEAN_ELEMENT_THEORY":"SGP4"},{"TLE_LINE1":"1 48355U 21038C   22328.51677552 -.00000101  00000-0  12109-4 0  9994","ELEMENT_SET_NO":"999","MEAN_ANOMALY":"301.2313","ARG_OF_PERICENTER":"58.8844","MEAN_ELEMENT_THEORY":"SGP4","TIME_SYSTEM":"UTC","TLE_LINE2":"2 48355  53.0547 353.9063 0001709  58.8844 301.2313 15.06386571 85989","INCLINATION":"53.0547","APOAPSIS":"548.438","SITE":"AFETR","PERIAPSIS":"546.071","OBJECT_TYPE":"PAYLOAD","OBJECT_ID":"2021-038C","LAUNCH_DATE":"2021-05-04","PERIOD":"95.593","MEAN_MOTION":"15.06386571","FILE":"3669335","MEAN_MOTION_DOT":"-0.00000101","SEMIMAJOR_AXIS":"6925.390","CLASSIFICATION_TYPE":"U","REV_AT_EPOCH":"8598","EPHEMERIS_TYPE":"0","COUNTRY_CODE":"US","OBJECT_NAME":"STARLINK-2635","ECCENTRICITY":"0.00017090","REF_FRAME":"TEME","MEAN_MOTION_DDOT":"0.0000000000000","NORAD_CAT_ID":"48355","GP_ID":"218723147","DECAY_DATE":null,"RA_OF_ASC_NODE":"353.9063","RCS_SIZE":"LARGE","BSTAR":"0.00001210900000","CENTER_NAME":"EARTH","EPOCH":"2022-11-24T12:24:09.404928"},{"ECCENTRICITY":"0.00016840","MEAN_MOTION_DDOT":"0.0000000000000","REF_FRAME":"TEME","COUNTRY_CODE":"US","EPHEMERIS_TYPE":"0","OBJECT_NAME":"STARLINK-2637","NORAD_CAT_ID":"48356","GP_ID":"218639673","DECAY_DATE":null,"EPOCH":"2022-11-24T12:18:50.289120","RA_OF_ASC_NODE":"353.9027","CENTER_NAME":"EARTH","BSTAR":"0.00006925200000","RCS_SIZE":"LARGE","ARG_OF_PERICENTER":"62.7212","MEAN_ANOMALY":"297.3948","TIME_SYSTEM":"UTC","MEAN_ELEMENT_THEORY":"SGP4","ELEMENT_SET_NO":"999","TLE_LINE1":"1 48356U 21038D   22328.51308205  .00000750  00000-0  69252-4 0  9991","PERIAPSIS":"546.045","TLE_LINE2":"2 48356  53.0561 353.9027 0001684  62.7212 297.3948 15.06400787 86561","APOAPSIS":"548.377","SITE":"AFETR","INCLINATION":"53.0561","FILE":"3668868","OBJECT_TYPE":"PAYLOAD","PERIOD":"95.592","MEAN_MOTION":"15.06400787","LAUNCH_DATE":"2021-05-04","OBJECT_ID":"2021-038D","CLASSIFICATION_TYPE":"U","REV_AT_EPOCH":"8656","SEMIMAJOR_AXIS":"6925.346","MEAN_MOTION_DOT":"0.00000750"}];
